#aV2012  9 11  0  0  0.00000000     288 DD+AD WGS84 FIT  NGA
## 1705 172800.00000000   300.00000000 56181 0.0000000000000
+   31     1  2  3  4  5  6  7  8  9 10 11 12 13 14 15 16 17
+         18 19 20 21 22 23 25 26 27 28 29 30 31 32  0  0  0
+          0  0  0  0  0  0  0  0  0  0  0  0  0  0  0  0  0
+          0  0  0  0  0  0  0  0  0  0  0  0  0  0  0  0  0
+          0  0  0  0  0  0  0  0  0  0  0  0  0  0  0  0  0
++         2  2  2  2  2  2  2  2  2  2  2  2  2  2  2  2  2
++         2  2  2  2  2  2  2  2  2  2  2  2  2  2  2  0  0
++         0  0  0  0  0  0  0  0  0  0  0  0  0  0  0  0  0
++         0  0  0  0  0  0  0  0  0  0  0  0  0  0  0  0  0
++         0  0  0  0  0  0  0  0  0  0  0  0  0  0  0  0  0
%c cc cc ccc ccc cccc cccc cccc cccc ccccc ccccc ccccc ccccc
%c cc cc ccc ccc cccc cccc cccc cccc ccccc ccccc ccccc ccccc
%f  0.0000000  0.000000000  0.00000000000  0.000000000000000
%f  0.0000000  0.000000000  0.00000000000  0.000000000000000
%i    0    0    0    0      0      0      0      0         0
%i    0    0    0    0      0      0      0      0         0
/*      NGA, ST. LOUIS,MO.                                  
/*   EPHEMERIS COMPUTED FROM  1 DAYS OF DATA
/*   EPOCHA SMOOTHER  
/* CCCCCCCCCCCCCCCCCCCCCCCCCCCCCCCCCCCCCCCCCCCCCCCCCCCCCCCCC
*  2012  9 11 16 25  0.00000000                                                 
P  1  14239.125494 -21254.798536   7019.733106    273.256356                    
V  1   -947.668478   9303.984746  30082.980212      0.015295                    
P  2 -16542.112903    919.656468 -20516.612970    402.579951                    
V  2   8762.179039 -25115.467521  -8636.371155      0.012102                    
P  3  20793.259594   4464.761359  15572.805405    100.242441                    
V  3  12817.894351  16390.113846 -20896.409362      0.050639                    
P  4 -10688.065765 -13367.858556 -20503.169336    301.464313                    
V  4  11025.714289 -23142.280058   9770.928638      0.112638                    
P  5 -26482.012488   1676.278475  -2325.264050   -351.154715                    
V  5   2519.482982  -3369.135366 -31244.097913     -0.030325                    
P  6  21092.750739   9798.084833  13217.719272    -27.918766                    
V  6   8829.707491  14215.921879 -24506.252282     -0.083820                    
P  7   5850.514196 -24816.554878   6924.120950    120.883842                    
V  7   5790.580730  -7069.373255 -30631.658328      0.042665                    
P  8  -2979.399534 -18932.311084  18190.445174      2.140766                    
V  8  12192.051466 -19637.002675 -19096.791330      0.000677                    
P  9 -15313.645115  18650.328701  10612.561657    184.859931                    
V  9   3680.891063 -13900.270651  28223.060014      0.025209                    
P 10 -17964.239180 -10471.415942 -17011.116558    -51.387772                    
V 10  20695.694390  -3935.694705 -19333.710650     -0.014268                    
P 11  13335.779415 -17975.303315  13665.902197   -301.641616                    
V 11   1860.650067  18733.168012  22479.564691     -0.039442                    
P 12 -19129.525158  11483.717149 -14280.791558     90.353173                    
V 12 -18225.916671     -4.148295  24625.289808      0.020349                    
P 13  -2071.340038 -22023.136721 -14750.722931    181.836228                    
V 13  11051.636994  14913.099483 -24145.332173     -0.025567                    
P 14  14565.808039  22309.310278     68.364693    212.389364                    
V 14  -1735.683193   1313.055166  32013.674139      0.009273                    
P 15 -13662.427904   7751.886221  21424.158645    -95.184288                    
V 15 -16805.650739 -21472.304910  -2726.673303     -0.006605                    
P 16  26627.604466   -568.592181  -2319.302981   -245.800625                    
V 16  -2745.863520   2103.488476 -31823.617882     -0.008073                    
P 17 -15077.741731 -22026.346808    392.632182     97.385658                    
V 17   2228.630503  -1220.524523  31653.019427     -0.032547                    
P 18   1107.587202  16057.752382  21499.826861    214.466410                    
V 18 -26406.553319   2845.879757  -1140.534003      0.018209                    
P 19  15094.739225  -4105.214104  21440.512133   -302.899576                    
V 19  14217.332228  23348.917224  -5127.128009     -0.035200                    
P 20  16103.324386 -14508.687777 -15462.003815     67.993893                    
V 20  19636.436021   -735.102053  21429.558007      0.007744                    
P 21  -2311.865181  24393.422527  10020.702815   -249.025670                    
V 21  -8134.675476   9843.534107 -27790.056500     -0.024144                    
P 22  16061.877054  11677.364897  17887.032073    147.767725                    
V 22 -22031.906408   4556.081030  16860.598309      0.005395                    
P 23   7638.347814 -14348.810535 -20876.005072    165.596771                    
V 23  16614.039626  20954.976282  -8684.226329     -0.039156                    
P 25  -6213.133494  15262.439039 -20857.679985     42.489637                    
V 25 -26251.268548   2703.366412   9877.888631      0.012621                    
P 26 -18132.789848  -6560.280530  17804.248613   -284.257264                    
V 26 -11534.416481 -20727.939089 -18397.861437      0.129598                    
P 27 -16459.041955  14225.622137  15452.304021    430.159377                    
V 27   5073.433171 -18111.170076  23492.760073      0.040969                    
P 28 -12469.645374 -12748.167936  20312.752152    184.389965                    
V 28  24331.737778  -2480.496745  13554.855954      0.038689                    
P 29   -328.865417  20371.836691 -17012.344578    354.385084                    
V 29 -13661.865659 -16912.147224 -19882.355447      0.041157                    
P 30  22780.714876   4319.257075 -13300.996482   -418.260129                    
V 30 -15416.929529   5734.636435 -25249.916121      0.182289                    
P 31  11091.242280  10475.624973 -21520.908849    273.719787                    
V 31 -11810.101409  25122.139904   6325.884440      0.024828                    
P 32  23435.025245  -7432.425728  -9188.466212   -486.785171                    
V 32  12224.486369   2828.660302  28785.713331     -0.041051                    
EOF
